STARLINK-31829          
1 59770U 24091T   26068.29616981 -.00004729  00000+0 -14782-3 0  9996
2 59770  53.1626  28.7501 0001412 111.3087 248.8065 15.30159829102947
2025-313BE              
1 67482U 25313BE  26068.69721505  .00077178  00000+0  26504-2 0  9996
2 67482  97.3989 145.3568 0007208 335.3714  24.7181 15.29801687  7972
